$$SOE
2460147.500000000, A.D. 2023-Jul-22 00:00:00.0000, 4.017785620441960E+08, 5.999695105463503E+07, 2.815547439114793E+07,
2460154.500000000, A.D. 2023-Jul-29 00:00:00.0000, 3.994162452471202E+08, 7.105544932636474E+07, 2.973067032909114E+07,
2460161.500000000, A.D. 2023-Aug-05 00:00:00.0000, 3.967659800635487E+08, 8.206290414154238E+07, 3.128439209413975E+07,
2460168.500000000, A.D. 2023-Aug-12 00:00:00.0000, 3.938288217897820E+08, 9.301120219669883E+07, 3.281544954746957E+07,
2460175.500000000, A.D. 2023-Aug-19 00:00:00.0000, 3.906061003182560E+08, 1.038922377768646E+08, 3.432266674558255E+07,
2460182.500000000, A.D. 2023-Aug-26 00:00:00.0000, 3.870994210787525E+08, 1.146979240063510E+08, 3.580488370648665E+07,
2460189.500000000, A.D. 2023-Sep-02 00:00:00.0000, 3.833106653759123E+08, 1.254202041541469E+08, 3.726095816448578E+07,
2460196.500000000, A.D. 2023-Sep-09 00:00:00.0000, 3.792419901489000E+08, 1.360510629171572E+08, 3.868976730128530E+07,
2460203.500000000, A.D. 2023-Sep-16 00:00:00.0000, 3.748958273135513E+08, 1.465825375854889E+08, 4.009020942744832E+07,
2460210.500000000, A.D. 2023-Sep-23 00:00:00.0000, 3.702748830965900E+08, 1.570067293358958E+08, 4.146120559292302E+07,
2460217.500000000, A.D. 2023-Sep-30 00:00:00.0000, 3.653821370137656E+08, 1.673158158022774E+08, 4.280170124745451E+07,
2460224.500000000, A.D. 2023-Oct-07 00:00:00.0000, 3.602208381317826E+08, 1.775020643432986E+08, 4.411066811544192E+07,
2460231.500000000, A.D. 2023-Oct-14 00:00:00.0000, 3.547944996580861E+08, 1.875578426588582E+08, 4.538710591388508E+07,
2460238.500000000, A.D. 2023-Oct-21 00:00:00.0000, 3.491068950946290E+08, 1.974756283191064E+08, 4.663004374262596E+07,
2460245.500000000, A.D. 2023-Oct-28 00:00:00.0000, 3.431620545391570E+08, 2.072480194273299E+08, 4.783854145658554E+07,
2460252.500000000, A.D. 2023-Nov-04 00:00:00.0000, 3.369642598962685E+08, 2.168677456086546E+08, 4.901169106666955E+07,
2460259.500000000, A.D. 2023-Nov-11 00:00:00.0000, 3.305180391913699E+08, 2.263276786872500E+08, 5.014861809906265E+07,
2460266.500000000, A.D. 2023-Nov-18 00:00:00.0000, 3.238281602248537E+08, 2.356208429513819E+08, 5.124848288262366E+07,
2460273.500000000, A.D. 2023-Nov-25 00:00:00.0000, 3.168996236598932E+08, 2.447404249942150E+08, 5.231048175503409E+07,
2460280.500000000, A.D. 2023-Dec-02 00:00:00.0000, 3.097376555956360E+08, 2.536797830861890E+08, 5.333384818021534E+07,
2460287.500000000, A.D. 2023-Dec-09 00:00:00.0000, 3.023476997301656E+08, 2.624324559887751E+08, 5.431785376159105E+07,
2460294.500000000, A.D. 2023-Dec-16 00:00:00.0000, 2.947354094302494E+08, 2.709921711927532E+08, 5.526180912285529E+07,
2460301.500000000, A.D. 2023-Dec-23 00:00:00.0000, 2.869066400884563E+08, 2.793528532399282E+08, 5.616506467756890E+07,
2460308.500000000, A.D. 2023-Dec-30 00:00:00.0000, 2.788674404586018E+08, 2.875086331487022E+08, 5.702701149270061E+07,
2460315.500000000, A.D. 2024-Jan-06 00:00:00.0000, 2.706240412270521E+08, 2.954538565597299E+08, 5.784708221323512E+07,
2460322.500000000, A.D. 2024-Jan-13 00:00:00.0000, 2.621828440302063E+08, 3.031830887782924E+08, 5.862475160879360E+07,
2460329.500000000, A.D. 2024-Jan-20 00:00:00.0000, 2.535504121810112E+08, 3.106911197792413E+08, 5.935953688084339E+07,
2460336.500000000, A.D. 2024-Jan-27 00:00:00.0000, 2.447334611116121E+08, 3.179729698097799E+08, 6.005099796845019E+07,
2460343.500000000, A.D. 2024-Feb-03 00:00:00.0000, 2.357388481405888E+08, 3.250238946295008E+08, 6.069873781409490E+07,
2460350.500000000, A.D. 2024-Feb-10 00:00:00.0000, 2.265735618803436E+08, 3.318393900879708E+08, 6.130240254083364E+07,
2460357.500000000, A.D. 2024-Feb-17 00:00:00.0000, 2.172447114618358E+08, 3.384151960419844E+08, 6.186168152974936E+07,
2460364.500000000, A.D. 2024-Feb-24 00:00:00.0000, 2.077595156508748E+08, 3.447472996243128E+08, 6.237630739710747E+07,
2460371.500000000, A.D. 2024-Mar-02 00:00:00.0000, 1.981252919230832E+08, 3.508319378313605E+08, 6.284605586785567E+07,
2460378.500000000, A.D. 2024-Mar-09 00:00:00.0000, 1.883494456733679E+08, 3.566655993698725E+08, 6.327074553009588E+07,
2460385.500000000, A.D. 2024-Mar-16 00:00:00.0000, 1.784394599917058E+08, 3.622450259663891E+08, 6.365023745349897E+07,
2460392.500000000, A.D. 2024-Mar-23 00:00:00.0000, 1.684028859384246E+08, 3.675672142573779E+08, 6.398443477520522E+07,
2460399.500000000, A.D. 2024-Mar-30 00:00:00.0000, 1.582473311122767E+08, 3.726294182408509E+08, 6.427328245921552E+07,
2460406.500000000, A.D. 2024-Apr-06 00:00:00.0000, 1.479804467960034E+08, 3.774291489330646E+08, 6.451676693389928E+07,
2460413.500000000, A.D. 2024-Apr-13 00:00:00.0000, 1.376099172615946E+08, 3.819641720865595E+08, 6.471491535567118E+07,
2460420.500000000, A.D. 2024-Apr-20 00:00:00.0000, 1.271434503152374E+08, 3.862325066641396E+08, 6.486779480933368E+07,
2460427.500000000, A.D. 2024-Apr-27 00:00:00.0000, 1.165887675920411E+08, 3.902324235245372E+08, 6.497551154225071E+07,
2460434.500000000, A.D. 2024-May-04 00:00:00.0000, 1.059535947130363E+08, 3.939624436368384E+08, 6.503821017137198E+07,
2460441.500000000, A.D. 2024-May-11 00:00:00.0000, 9.524565156605905E+07, 3.974213357446722E+08, 6.505607283785892E+07,
2460448.500000000, A.D. 2024-May-18 00:00:00.0000, 8.447264281416790E+07, 4.006081135259584E+08, 6.502931830861312E+07,
2460455.500000000, A.D. 2024-May-25 00:00:00.0000, 7.364224867630428E+07, 4.035220322661185E+08, 6.495820102689612E+07,
2460462.500000000, A.D. 2024-Jun-01 00:00:00.0000, 6.276211605832516E+07, 4.061625850125245E+08, 6.484301010669488E+07,
2460469.500000000, A.D. 2024-Jun-08 00:00:00.0000, 5.183985029694382E+07, 4.085294982120022E+08, 6.468406825080612E+07,
2460476.500000000, A.D. 2024-Jun-15 00:00:00.0000, 4.088300792954534E+07, 4.106227274011307E+08, 6.448173060468313E+07,
2460483.500000000, A.D. 2024-Jun-22 00:00:00.0000, 2.989908949590967E+07, 4.124424541494527E+08, 6.423638373827881E+07,
2460490.500000000, A.D. 2024-Jun-29 00:00:00.0000, 1.889553025864325E+07, 4.139890824570292E+08, 6.394844480512518E+07,
2460497.500000000, A.D. 2024-Jul-06 00:00:00.0000, 7.879691489224890E+06, 4.152632321589043E+08, 6.361836043854964E+07,
2460504.500000000, A.D. 2024-Jul-13 00:00:00.0000, -3.141145728722964E+06, 4.162657321929466E+08, 6.324660544345686E+07,
2460511.500000000, A.D. 2024-Jul-20 00:00:00.0000, -1.415978615855060E+07, 4.169976149099581E+08, 6.283368156496876E+07,
2460518.500000000, A.D. 2024-Jul-27 00:00:00.0000, -2.516912618431196E+07, 4.174601104918069E+08, 6.238011631956315E+07,
2460525.500000000, A.D. 2024-Aug-03 00:00:00.0000, -3.616215942518409E+07, 4.176546411265981E+08, 6.188646183642721E+07,
2460532.500000000, A.D. 2024-Aug-10 00:00:00.0000, -4.713198202580472E+07, 4.175828149596280E+08, 6.135329369648555E+07,
2460539.500000000, A.D. 2024-Aug-17 00:00:00.0000, -5.807179757801716E+07, 4.172464198642182E+08, 6.078120976931080E+07,
2460546.500000000, A.D. 2024-Aug-24 00:00:00.0000, -6.897492165058765E+07, 4.166474170317801E+08, 6.017082904614696E+07,
2460553.500000000, A.D. 2024-Aug-31 00:00:00.0000, -7.983478581703615E+07, 4.157879343403970E+08, 5.952279045588258E+07,
2460560.500000000, A.D. 2024-Sep-07 00:00:00.0000, -9.064494082318950E+07, 4.146702596482540E+08, 5.883775164313990E+07,
2460567.500000000, A.D. 2024-Sep-14 00:00:00.0000, -1.013990588176851E+08, 4.132968350276471E+08, 5.811638778444192E+07,
2460574.500000000, A.D. 2024-Sep-21 00:00:00.0000, -1.120909366825473E+08, 4.116702523721832E+08, 5.735939066454449E+07,
2460581.500000000, A.D. 2024-Sep-28 00:00:00.0000, -1.227145009583588E+08, 4.097932471650106E+08, 5.656746779526475E+07,
2460588.500000000, A.D. 2024-Oct-05 00:00:00.0000, -1.332638107054776E+08, 4.076686904219607E+08, 5.574134124172422E+07,
2460595.500000000, A.D. 2024-Oct-12 00:00:00.0000, -1.437330586750515E+08, 4.052995818068135E+08, 5.488174643486941E+07,
2460602.500000000, A.D. 2024-Oct-19 00:00:00.0000, -1.541165725509906E+08, 4.026890436637457E+08, 5.398943111037654E+07,
2460609.500000000, A.D. 2024-Oct-26 00:00:00.0000, -1.644088163058547E+08, 3.998403151775630E+08, 5.306515431251705E+07,
2460616.500000000, A.D. 2024-Nov-02 00:00:00.0000, -1.746043914250987E+08, 3.967567465243303E+08, 5.210968542833632E+07,
2460623.500000000, A.D. 2024-Nov-09 00:00:00.0000, -1.846980379152234E+08, 3.934417930436078E+08, 5.112380324600872E+07,
2460630.500000000, A.D. 2024-Nov-16 00:00:00.0000, -1.946846350821547E+08, 3.898990094422382E+08, 5.010829503591830E+07,
2460637.500000000, A.D. 2024-Nov-23 00:00:00.0000, -2.045592020451887E+08, 3.861320439884489E+08, 4.906395564684892E+07,
2460644.500000000, A.D. 2024-Nov-30 00:00:00.0000, -2.143168977905277E+08, 3.821446326612029E+08, 4.799158659532674E+07,
2460651.500000000, A.D. 2024-Dec-07 00:00:00.0000, -2.239530203575431E+08, 3.779405936819810E+08, 4.689199514456207E+07,
2460658.500000000, A.D. 2024-Dec-14 00:00:00.0000, -2.334630058596476E+08, 3.735238236594146E+08, 4.576599353673835E+07,
2460665.500000000, A.D. 2024-Dec-21 00:00:00.0000, -2.428424296708416E+08, 3.688982941130899E+08, 4.461439849038851E+07,
2460672.500000000, A.D. 2024-Dec-28 00:00:00.0000, -2.520870078149920E+08, 3.640680454128630E+08, 4.343803053941356E+07,
2460679.500000000, A.D. 2025-Jan-04 00:00:00.0000, -2.611925959722397E+08, 3.590371805102523E+08, 4.223771316969535E+07,
2460686.500000000, A.D. 2025-Jan-11 00:00:00.0000, -2.701551879376525E+08, 3.538098601256973E+08, 4.101427205636191E+07,
2460693.500000000, A.D. 2025-Jan-18 00:00:00.0000, -2.789709144600125E+08, 3.483902984769735E+08, 3.976853441076840E+07,
2460700.500000000, A.D. 2025-Jan-25 00:00:00.0000, -2.876360422268704E+08, 3.427827590755904E+08, 3.850132837580732E+07,
2460707.500000000, A.D. 2025-Feb-01 00:00:00.0000, -2.961469728161125E+08, 3.369915505612791E+08, 3.721348244935049E+07,
2460714.500000000, A.D. 2025-Feb-08 00:00:00.0000, -3.045002415651989E+08, 3.310210225940417E+08, 3.590582493164271E+07,
$$EOE